CCSDS_OMM_VERS = 2.0
CREATION_DATE  = 
ORIGINATOR     = 

OBJECT_NAME    = STARLINK-36796
OBJECT_ID      = 2026-026B
CENTER_NAME    = EARTH
REF_FRAME      = TEME
TIME_SYSTEM    = UTC
MEAN_ELEMENT_THEORY = SGP/SGP4

EPOCH          = 2026-02-26T14:00:01.999872
MEAN_MOTION    = 15.80811521
ECCENTRICITY   = .00013451
INCLINATION    = 97.2852
RA_OF_ASC_NODE = 111.6679
ARG_OF_PERICENTER = 79.9794
MEAN_ANOMALY   = 138.6911

EPHEMERIS_TYPE = 0
CLASSIFICATION_TYPE = U
NORAD_CAT_ID   = 67722
ELEMENT_SET_NO = 999
REV_AT_EPOCH   = 352
BSTAR          = .23260733E-3
MEAN_MOTION_DOT = .44632E-3
MEAN_MOTION_DDOT = 0

CCSDS_OMM_VERS = 2.0
CREATION_DATE  = 
ORIGINATOR     = 

OBJECT_NAME    = STARLINK-36369
OBJECT_ID      = 2026-026C
CENTER_NAME    = EARTH
REF_FRAME      = TEME
TIME_SYSTEM    = UTC
MEAN_ELEMENT_THEORY = SGP/SGP4

EPOCH          = 2026-02-26T14:00:01.999872
MEAN_MOTION    = 15.80786952
ECCENTRICITY   = .00017533
INCLINATION    = 97.2851
RA_OF_ASC_NODE = 111.6708
ARG_OF_PERICENTER = 114.7672
MEAN_ANOMALY   = 109.7415

EPHEMERIS_TYPE = 0
CLASSIFICATION_TYPE = U
NORAD_CAT_ID   = 67723
ELEMENT_SET_NO = 999
REV_AT_EPOCH   = 352
BSTAR          = .73573776E-3
MEAN_MOTION_DOT = .142932E-2
MEAN_MOTION_DDOT = 0

CCSDS_OMM_VERS = 2.0
CREATION_DATE  = 
ORIGINATOR     = 

OBJECT_NAME    = STARLINK-36752
OBJECT_ID      = 2026-026D
CENTER_NAME    = EARTH
REF_FRAME      = TEME
TIME_SYSTEM    = UTC
MEAN_ELEMENT_THEORY = SGP/SGP4

EPOCH          = 2026-02-26T14:00:01.999872
MEAN_MOTION    = 15.80798653
ECCENTRICITY   = .00012101
INCLINATION    = 97.2847
RA_OF_ASC_NODE = 111.6740
ARG_OF_PERICENTER = 77.5248
MEAN_ANOMALY   = 154.6219

EPHEMERIS_TYPE = 0
CLASSIFICATION_TYPE = U
NORAD_CAT_ID   = 67724
ELEMENT_SET_NO = 999
REV_AT_EPOCH   = 352
BSTAR          = .38158525E-3
MEAN_MOTION_DOT = .73509E-3
MEAN_MOTION_DDOT = 0

CCSDS_OMM_VERS = 2.0
CREATION_DATE  = 
ORIGINATOR     = 

OBJECT_NAME    = STARLINK-36754
OBJECT_ID      = 2026-026E
CENTER_NAME    = EARTH
REF_FRAME      = TEME
TIME_SYSTEM    = UTC
MEAN_ELEMENT_THEORY = SGP/SGP4

EPOCH          = 2026-02-26T14:00:01.999872
MEAN_MOTION    = 15.80802165
ECCENTRICITY   = .00013289
INCLINATION    = 97.2847
RA_OF_ASC_NODE = 111.6756
ARG_OF_PERICENTER = 92.0668
MEAN_ANOMALY   = 146.1037

EPHEMERIS_TYPE = 0
CLASSIFICATION_TYPE = U
NORAD_CAT_ID   = 67725
ELEMENT_SET_NO = 999
REV_AT_EPOCH   = 352
BSTAR          = .26782401E-3
MEAN_MOTION_DOT = .51429E-3
MEAN_MOTION_DDOT = 0

CCSDS_OMM_VERS = 2.0
CREATION_DATE  = 
ORIGINATOR     = 

OBJECT_NAME    = STARLINK-36755
OBJECT_ID      = 2026-026F
CENTER_NAME    = EARTH
REF_FRAME      = TEME
TIME_SYSTEM    = UTC
MEAN_ELEMENT_THEORY = SGP/SGP4

EPOCH          = 2026-02-26T14:00:01.999872
MEAN_MOTION    = 15.80780163
ECCENTRICITY   = .00007463
INCLINATION    = 97.2846
RA_OF_ASC_NODE = 111.6778
ARG_OF_PERICENTER = 85.7709
MEAN_ANOMALY   = 160.0563

EPHEMERIS_TYPE = 0
CLASSIFICATION_TYPE = U
NORAD_CAT_ID   = 67726
ELEMENT_SET_NO = 999
REV_AT_EPOCH   = 352
BSTAR          = .65628408E-3
MEAN_MOTION_DOT = .127206E-2
MEAN_MOTION_DDOT = 0

CCSDS_OMM_VERS = 2.0
CREATION_DATE  = 
ORIGINATOR     = 

OBJECT_NAME    = STARLINK-36741
OBJECT_ID      = 2026-026G
CENTER_NAME    = EARTH
REF_FRAME      = TEME
TIME_SYSTEM    = UTC
MEAN_ELEMENT_THEORY = SGP/SGP4

EPOCH          = 2026-02-26T14:00:01.999872
MEAN_MOTION    = 15.80802800
ECCENTRICITY   = .00013727
INCLINATION    = 97.2846
RA_OF_ASC_NODE = 111.6800
ARG_OF_PERICENTER = 97.4255
MEAN_ANOMALY   = 153.3388

EPHEMERIS_TYPE = 0
CLASSIFICATION_TYPE = U
NORAD_CAT_ID   = 67727
ELEMENT_SET_NO = 999
REV_AT_EPOCH   = 352
BSTAR          = .34183974E-3
MEAN_MOTION_DOT = .65792E-3
MEAN_MOTION_DDOT = 0

CCSDS_OMM_VERS = 2.0
CREATION_DATE  = 
ORIGINATOR     = 

OBJECT_NAME    = STARLINK-36757
OBJECT_ID      = 2026-026H
CENTER_NAME    = EARTH
REF_FRAME      = TEME
TIME_SYSTEM    = UTC
MEAN_ELEMENT_THEORY = SGP/SGP4

EPOCH          = 2026-02-26T14:00:01.999872
MEAN_MOTION    = 15.80784264
ECCENTRICITY   = .00016672
INCLINATION    = 97.2843
RA_OF_ASC_NODE = 111.6818
ARG_OF_PERICENTER = 95.2374
MEAN_ANOMALY   = 162.4327

EPHEMERIS_TYPE = 0
CLASSIFICATION_TYPE = U
NORAD_CAT_ID   = 67728
ELEMENT_SET_NO = 999
REV_AT_EPOCH   = 352
BSTAR          = .67097674E-3
MEAN_MOTION_DOT = .130129E-2
MEAN_MOTION_DDOT = 0

CCSDS_OMM_VERS = 2.0
CREATION_DATE  = 
ORIGINATOR     = 

OBJECT_NAME    = STARLINK-36751
OBJECT_ID      = 2026-026J
CENTER_NAME    = EARTH
REF_FRAME      = TEME
TIME_SYSTEM    = UTC
MEAN_ELEMENT_THEORY = SGP/SGP4

EPOCH          = 2026-02-26T14:00:01.999872
MEAN_MOTION    = 15.80773189
ECCENTRICITY   = .00017813
INCLINATION    = 97.2843
RA_OF_ASC_NODE = 111.6880
ARG_OF_PERICENTER = 102.1630
MEAN_ANOMALY   = 169.6050

EPHEMERIS_TYPE = 0
CLASSIFICATION_TYPE = U
NORAD_CAT_ID   = 67729
ELEMENT_SET_NO = 999
REV_AT_EPOCH   = 352
BSTAR          = .81734865E-3
MEAN_MOTION_DOT = .158997E-2
MEAN_MOTION_DDOT = 0

CCSDS_OMM_VERS = 2.0
CREATION_DATE  = 
ORIGINATOR     = 

OBJECT_NAME    = STARLINK-36747
OBJECT_ID      = 2026-026K
CENTER_NAME    = EARTH
REF_FRAME      = TEME
TIME_SYSTEM    = UTC
MEAN_ELEMENT_THEORY = SGP/SGP4

EPOCH          = 2026-02-26T14:00:01.999872
MEAN_MOTION    = 15.80766110
ECCENTRICITY   = .00014527
INCLINATION    = 97.2843
RA_OF_ASC_NODE = 111.6849
ARG_OF_PERICENTER = 93.6269
MEAN_ANOMALY   = 169.6031

EPHEMERIS_TYPE = 0
CLASSIFICATION_TYPE = U
NORAD_CAT_ID   = 67730
ELEMENT_SET_NO = 999
REV_AT_EPOCH   = 352
BSTAR          = .67497983E-3
MEAN_MOTION_DOT = .130807E-2
MEAN_MOTION_DDOT = 0

CCSDS_OMM_VERS = 2.0
CREATION_DATE  = 
ORIGINATOR     = 

OBJECT_NAME    = STARLINK-36315
OBJECT_ID      = 2026-026L
CENTER_NAME    = EARTH
REF_FRAME      = TEME
TIME_SYSTEM    = UTC
MEAN_ELEMENT_THEORY = SGP/SGP4

EPOCH          = 2026-02-26T14:00:01.999872
MEAN_MOTION    = 15.80770266
ECCENTRICITY   = .00018698
INCLINATION    = 97.2843
RA_OF_ASC_NODE = 111.6909
ARG_OF_PERICENTER = 111.3370
MEAN_ANOMALY   = 165.9075

EPHEMERIS_TYPE = 0
CLASSIFICATION_TYPE = U
NORAD_CAT_ID   = 67731
ELEMENT_SET_NO = 999
REV_AT_EPOCH   = 352
BSTAR          = .74501406E-3
MEAN_MOTION_DOT = .144656E-2
MEAN_MOTION_DDOT = 0

CCSDS_OMM_VERS = 2.0
CREATION_DATE  = 
ORIGINATOR     = 

OBJECT_NAME    = STARLINK-36260
OBJECT_ID      = 2026-026M
CENTER_NAME    = EARTH
REF_FRAME      = TEME
TIME_SYSTEM    = UTC
MEAN_ELEMENT_THEORY = SGP/SGP4

EPOCH          = 2026-02-26T14:00:01.999872
MEAN_MOTION    = 15.80824726
ECCENTRICITY   = .00014818
INCLINATION    = 97.2846
RA_OF_ASC_NODE = 111.6930
ARG_OF_PERICENTER = 103.5470
MEAN_ANOMALY   = 180.4416

EPHEMERIS_TYPE = 0
CLASSIFICATION_TYPE = U
NORAD_CAT_ID   = 67732
ELEMENT_SET_NO = 999
REV_AT_EPOCH   = 352
BSTAR          = .77810958E-4
MEAN_MOTION_DOT = .14794E-3
MEAN_MOTION_DDOT = 0

CCSDS_OMM_VERS = 2.0
CREATION_DATE  = 
ORIGINATOR     = 

OBJECT_NAME    = STARLINK-36746
OBJECT_ID      = 2026-026N
CENTER_NAME    = EARTH
REF_FRAME      = TEME
TIME_SYSTEM    = UTC
MEAN_ELEMENT_THEORY = SGP/SGP4

EPOCH          = 2026-02-26T14:00:01.999872
MEAN_MOTION    = 15.75367888
ECCENTRICITY   = .00014987
INCLINATION    = 97.2762
RA_OF_ASC_NODE = 111.6883
ARG_OF_PERICENTER = 94.0636
MEAN_ANOMALY   = 181.9391

EPHEMERIS_TYPE = 0
CLASSIFICATION_TYPE = U
NORAD_CAT_ID   = 67733
ELEMENT_SET_NO = 999
REV_AT_EPOCH   = 352
BSTAR          = -.14092503E-1
MEAN_MOTION_DOT = -.1852673E-1
MEAN_MOTION_DDOT = 0

