STARLINK-36796          
1 67722U 26026B   26057.58335648  .00044632  00000+0  23261-3 0  9997
2 67722  97.2852 111.6679 0001345  79.9794 138.6911 15.80811521  3529
STARLINK-36369          
1 67723U 26026C   26057.58335648  .00142932  00000+0  73574-3 0  9992
2 67723  97.2851 111.6708 0001753 114.7672 109.7415 15.80786952  3525
STARLINK-36752          
1 67724U 26026D   26057.58335648  .00073509  00000+0  38159-3 0  9996
2 67724  97.2847 111.6740 0001210  77.5248 154.6219 15.80798653  3522
STARLINK-36754          
1 67725U 26026E   26057.58335648  .00051429  00000+0  26782-3 0  9993
2 67725  97.2847 111.6756 0001328  92.0668 146.1037 15.80802165  3526
STARLINK-36755          
1 67726U 26026F   26057.58335648  .00127206  00000+0  65628-3 0  9993
2 67726  97.2846 111.6778 0000746  85.7709 160.0563 15.80780163  3520
STARLINK-36741          
1 67727U 26026G   26057.58335648  .00065792  00000+0  34184-3 0  9998
2 67727  97.2846 111.6800 0001372  97.4255 153.3388 15.80802800  3522
STARLINK-36757          
1 67728U 26026H   26057.58335648  .00130129  00000+0  67098-3 0  9996
2 67728  97.2843 111.6818 0001667  95.2374 162.4327 15.80784264  3521
STARLINK-36751          
1 67729U 26026J   26057.58335648  .00158997  00000+0  81735-3 0  9994
2 67729  97.2843 111.6880 0001781 102.1630 169.6050 15.80773189  3527
STARLINK-36747          
1 67730U 26026K   26057.58335648  .00130807  00000+0  67498-3 0  9996
2 67730  97.2843 111.6849 0001452  93.6269 169.6031 15.80766110  3526
STARLINK-36315          
1 67731U 26026L   26057.58335648  .00144656  00000+0  74501-3 0  9997
2 67731  97.2843 111.6909 0001869 111.3370 165.9075 15.80770266  3521
STARLINK-36260          
1 67732U 26026M   26057.58335648  .00014794  00000+0  77811-4 0  9995
2 67732  97.2846 111.6930 0001481 103.5470 180.4416 15.80824726  3525
STARLINK-36746          
1 67733U 26026N   26057.58335648 -.01852673  00000+0 -14093-1 0  9995
2 67733  97.2762 111.6883 0001498  94.0636 181.9391 15.75367888  3529
